NORAD_CAT_ID,OBJECT_NAME,OBJECT_TYPE,EPOCH,MEAN_MOTION,ECCENTRICITY,INCLINATION,RA_OF_ASC_NODE,ARG_OF_PERICENTER,MEAN_ANOMALY,BSTAR,MEAN_MOTION_DOT,MEAN_MOTION_DDOT,TLE_LINE0,TLE_LINE1,TLE_LINE2,SEMIMAJOR_AXIS,PERIOD,APOGEE,PERIGEE,DECAYED
52879.0,STARLINK-4139,PAYLOAD,2022-07-04 14:00:01,15.73269949,0.0001619,53.2157,320.41,48.348,50.1275,-0.00065645,-0.00092025,0.0,0 STARLINK-4139,1 52879U 22062BB  22185.58334491 -.00092025  00000-0 -65645-3 0  9997,2 52879  53.2157 320.4100 0001619  48.3480  50.1275 15.73269949  3187,6727.696,91.529,350.65,348.472,0.0
52879.0,STARLINK-4139,PAYLOAD,2022-07-04 22:00:00,15.73275482,0.0001584,53.215,318.7608,39.143,148.3382,-0.00030975,-0.00044007,0.0,0 STARLINK-4139,1 52879U 22062BB  22185.91667824 -.00044007  00000-0 -30975-3 0  9998,2 52879  53.2150 318.7608 0001584  39.1430 148.3382 15.73275482  3231,6727.68,91.529,350.611,348.47900000000016,0.0
52879.0,STARLINK-4139,PAYLOAD,2022-07-05 14:00:01,15.73274658,0.0001471,53.2153,315.4613,37.3988,328.0192,-0.00091896,-0.00128057,0.0,0 STARLINK-4139,1 52879U 22062BB  22186.58334491 -.00128057  00000-0 -91896-3 0  9990,2 52879  53.2153 315.4613 0001471  37.3988 328.0192 15.73274658  1303,6727.682,91.529,350.537,348.55800000000005,0.0
52879.0,STARLINK-4139,PAYLOAD,2022-07-05 22:00:00,15.73172808,0.0001541,53.2152,313.812,31.7514,62.6339,-0.0001377,-0.00019878,0.0,0 STARLINK-4139,1 52879U 22062BB  22186.91667824 -.00019878  00000-0 -13770-3 0  9991,2 52879  53.2152 313.8120 0001541  31.7514  62.6339 15.73172808  1306,6727.973000000001,91.535,350.874,348.801,0.0
52879.0,STARLINK-4139,PAYLOAD,2022-07-06 06:00:00,15.73124629,0.0001366,53.2153,312.1606,35.561,147.6879,0.00051893,0.00072604,0.0,0 STARLINK-4139,1 52879U 22062BB  22187.25001157  .00072604  00000-0  51893-3 0  9992,2 52879  53.2153 312.1606 0001366  35.5610 147.6879 15.73124629  3440,6728.11,91.538,350.894,349.056,0.0
52879.0,STARLINK-4139,PAYLOAD,2022-07-06 14:00:01,15.73175331,0.0001623,53.2157,310.5131,33.5588,238.5595,5.1873e-05,6.658e-05,0.0,0 STARLINK-4139,1 52879U 22062BB  22187.58334491  .00006658  00000-0  51873-4 0  9993,2 52879  53.2157 310.5131 0001623  33.5588 238.5595 15.73175331  1301,6727.965999999999,91.535,350.922,348.73900000000015,0.0
52879.0,STARLINK-4139,PAYLOAD,2022-07-06 22:00:00,15.73210453,0.0001718,53.2157,308.8635,32.3038,328.7088,-0.00016809,-0.00024155,0.0,0 STARLINK-4139,1 52879U 22062BB  22187.91667824 -.00024155  00000-0 -16809-3 0  9992,2 52879  53.2157 308.8635 0001718  32.3038 328.7088 15.73210453  3555,6727.865,91.533,350.886,348.575,0.0
52879.0,STARLINK-4139,PAYLOAD,2022-07-07 04:05:42,15.73204986,0.0001612,53.2155,307.6055,26.289,333.8212,0.00020357,0.00028051,0.0,0 STARLINK-4139,1 52879U 22062BB  22188.17062737  .00028051  00000-0  20357-3 0  9993,2 52879  53.2155 307.6055 0001612  26.2890 333.8212 15.73204986  3591,6727.880999999999,91.533,350.83,348.661,0.0
52879.0,STARLINK-4139,PAYLOAD,2022-07-07 14:00:01,15.73191999,0.0001785,53.215,305.5641,36.473,142.4576,-6.3854e-05,-9.569e-05,0.0,0 STARLINK-4139,1 52879U 22062BB  22188.58334491 -.00009569  00000-0 -63854-4 0  9992,2 52879  53.2150 305.5641 0001785  36.4730 142.4576 15.73191999  3654,6727.918000000002,91.534,350.9840000000001,348.582,0.0
52879.0,STARLINK-4139,PAYLOAD,2022-07-07 20:51:58,15.73239716,0.0002014,53.2153,304.147,34.3172,325.7978,0.00023393,0.00032394,0.0,0 STARLINK-4139,1 52879U 22062BB  22188.86942761  .00032394  00000-0  23393-3 0  9991,2 52879  53.2153 304.1470 0002014  34.3172 325.7978 15.73239716  3219,6727.781999999997,91.531,351.00199999999984,348.292,0.0
52879.0,STARLINK-4139,PAYLOAD,2022-07-08 06:00:02,15.73248164,0.0001665999999999,53.2153,302.2627,35.5602,321.3737,3.7418e-05,4.644e-05,0.0,0 STARLINK-4139,1 52879U 22062BB  22189.25002315  .00004644  00000-0  37418-4 0  9998,2 52879  53.2153 302.2627 0001666  35.5602 321.3737 15.73248164  3767,6727.7580000000025,91.53,350.744,348.50199999999984,0.0
52879.0,STARLINK-4139,PAYLOAD,2022-07-08 13:38:13,15.73275625,0.0001696,53.2153,300.6888,41.0275,319.0872,0.00019835,0.00027398,0.0,0 STARLINK-4139,1 52879U 22062BB  22189.56821024  .00027398  00000-0  19835-3 0  9991,2 52879  53.2153 300.6888 0001696  41.0275 319.0872 15.73275625  3327,6727.68,91.529,350.686,348.404,0.0
52879.0,STARLINK-4139,PAYLOAD,2022-07-08 14:00:01,15.73304081,0.0001972,53.2151,300.615,30.4755,55.4103,-3.9271e-05,-6.154e-05,0.0,0 STARLINK-4139,1 52879U 22062BB  22189.58334491 -.00006154  00000-0 -39271-4 0  9996,2 52879  53.2151 300.6150 0001972  30.4755  55.4103 15.73304081  3810,6727.598000000001,91.527,350.79,348.13699999999994,0.0
52879.0,STARLINK-4139,PAYLOAD,2022-07-08 22:00:01,15.73320709,0.0002017,53.2147,298.9647,30.8584,144.1422,-0.00044256,-0.00062598,0.0,0 STARLINK-4139,1 52879U 22062BB  22189.91668981 -.00062598  00000-0 -44256-3 0  9999,2 52879  53.2147 298.9647 0002017  30.8584 144.1422 15.73320709  1307,6727.551,91.526,350.773,348.059,0.0
52879.0,STARLINK-4139,PAYLOAD,2022-07-09 06:00:00,15.72826192,0.0001876,53.2165,297.313,31.6382,232.1188,0.0039222,0.00580303,0.0,0 STARLINK-4139,1 52879U 22062BB  22190.25001157  .00580303  00000-0  39222-2 0  9997,2 52879  53.2165 297.3130 0001876  31.6382 232.1188 15.72826192  3927,6728.9609999999975,91.555,352.088,349.564,0.0
52879.0,STARLINK-4139,PAYLOAD,2022-07-09 14:00:01,15.73205563,0.0001926,53.2172,295.6662,16.3472,336.1233,-1.7831e-05,-3.123e-05,0.0,0 STARLINK-4139,1 52879U 22062BB  22190.58334491 -.00003123  00000-0 -17831-4 0  9999,2 52879  53.2172 295.6662 0001926  16.3472 336.1233 15.73205563  1302,6727.879,91.533,351.04,348.449,0.0
52879.0,STARLINK-4139,PAYLOAD,2022-07-09 16:00:00,15.73204113,0.0001915,53.2174,295.2542,16.4295,88.2748,6.5733e-06,3.02e-06,0.0,0 STARLINK-4139,1 52879U 22062BB  22190.66667824  .00000302  00000-0  65733-5 0  9996,2 52879  53.2174 295.2542 0001915  16.4295  88.2748 15.73204113  3981,6727.8830000000025,91.533,351.037,348.46,0.0
52879.0,STARLINK-4139,PAYLOAD,2022-07-09 20:00:01,15.73222754,0.000202,53.215,294.4292,24.3546,304.9781,-0.00036336,-0.0005136,0.0,0 STARLINK-4139,1 52879U 22062BB  22190.83334491 -.00051360  00000-0 -36336-3 0  9993,2 52879  53.2150 294.4292 0002020  24.3546 304.9781 15.73222754  1303,6727.83,91.532,351.05400000000014,348.336,0.0
52879.0,STARLINK-4139,PAYLOAD,2022-07-10 14:00:01,15.73219167,0.0002166,53.2156,290.7177,27.4559,231.962,-0.00044822,-0.00063114,0.0,0 STARLINK-4139,1 52879U 22062BB  22191.58334491 -.00063114  00000-0 -44822-3 0  9995,2 52879  53.2156 290.7177 0002166  27.4559 231.9620 15.73219167  4138,6727.840999999999,91.532,351.163,348.24800000000016,0.0
52879.0,STARLINK-4139,PAYLOAD,2022-07-10 22:00:00,15.7319919,0.0002088,53.2151,289.0673,23.9031,324.4376,5.3581e-05,6.905e-05,0.0,0 STARLINK-4139,1 52879U 22062BB  22191.91667824  .00006905  00000-0  53581-4 0  9997,2 52879  53.2151 289.0673 0002088  23.9031 324.4376 15.73199190  4188,6727.897,91.533,351.167,348.358,0.0
52879.0,STARLINK-4139,PAYLOAD,2022-07-11 14:00:01,15.73178119,0.0002291,53.2155,285.7692,28.3825,137.8503,0.00029886,0.00041493,0.0,0 STARLINK-4139,1 52879U 22062BB  22192.58334491  .00041493  00000-0  29886-3 0  9993,2 52879  53.2155 285.7692 0002291  28.3825 137.8503 15.73178119  1309,6727.958000000001,91.534,351.36400000000015,348.281,0.0
52879.0,STARLINK-4139,PAYLOAD,2022-07-11 22:00:00,15.73242161,0.0002212,53.2155,284.1188,25.6465,229.5058,-0.00072683,-0.001016,0.0,0 STARLINK-4139,1 52879U 22062BB  22192.91667824 -.00101600  00000-0 -72683-3 0  9991,2 52879  53.2155 284.1188 0002212  25.6465 229.5058 15.73242161  1308,6727.775,91.531,351.12800000000016,348.152,0.0
52879.0,STARLINK-4139,PAYLOAD,2022-07-12 06:00:00,15.73179661,0.0002107,53.216,282.4681,25.7173,318.3709,0.00046671,0.00065336,0.0,0 STARLINK-4139,1 52879U 22062BB  22193.25001157  .00065336  00000-0  46671-3 0  9991,2 52879  53.2160 282.4681 0002107  25.7173 318.3709 15.73179661  4399,6727.953,91.534,351.236,348.401,0.0
52879.0,STARLINK-4139,PAYLOAD,2022-07-12 14:00:01,15.7325083,0.0002373,53.2158,280.8209,20.9134,52.1298,-0.00035737,-0.00050592,0.0,0 STARLINK-4139,1 52879U 22062BB  22193.58334491 -.00050592  00000-0 -35737-3 0  9998,2 52879  53.2158 280.8209 0002373  20.9134  52.1298 15.73250830  1305,6727.75,91.53,351.212,348.019,0.0
52879.0,STARLINK-4139,PAYLOAD,2022-07-12 22:00:00,15.73248593,0.0002307,53.2153,279.1701,19.7759,142.2356,9.4056e-06,7.01e-06,0.0,0 STARLINK-4139,1 52879U 22062BB  22193.91667824  .00000701  00000-0  94056-5 0  9990,2 52879  53.2153 279.1701 0002307  19.7759 142.2356 15.73248593  1303,6727.757,91.53,351.1740000000001,348.07,0.0
52879.0,STARLINK-4139,PAYLOAD,2022-07-13 04:00:00,15.73264372,0.0002237,53.2152,277.932,25.419,113.3213,-0.00042699,-0.00060291,0.0,0 STARLINK-4139,1 52879U 22062BB  22194.16667824 -.00060291  00000-0 -42699-3 0  9994,2 52879  53.2152 277.9320 0002237  25.4190 113.3213 15.73264372  4532,6727.712,91.529,351.082,348.07199999999995,0.0
52879.0,STARLINK-4139,PAYLOAD,2022-07-13 14:00:01,15.73197132,0.0002518,53.2153,275.8725,24.8609,315.0758,-0.00055604,-0.00077944,0.0,0 STARLINK-4139,1 52879U 22062BB  22194.58334491 -.00077944  00000-0 -55604-3 0  9994,2 52879  53.2153 275.8725 0002518  24.8609 315.0758 15.73197132  4601,6727.903,91.533,351.462,348.074,0.0
52879.0,STARLINK-4139,PAYLOAD,2022-07-13 22:00:00,15.73128782,0.0002351,53.2153,274.2218,19.0852,49.7484,-0.00019195,-0.00027394,0.0,0 STARLINK-4139,1 52879U 22062BB  22194.91667824 -.00027394  00000-0 -19195-3 0  9999,2 52879  53.2153 274.2218 0002351  19.0852  49.7484 15.73128782  1308,6728.098000000001,91.537,351.545,348.381,0.0
52879.0,STARLINK-4139,PAYLOAD,2022-07-14 08:00:01,15.73135582,0.0002383,53.2154,272.1602,21.0581,248.7848,0.00014644,0.00019925,0.0,0 STARLINK-4139,1 52879U 22062BB  22195.33334491  .00019925  00000-0  14644-3 0  9990,2 52879  53.2154 272.1602 0002383  21.0581 248.7848 15.73135582  4720,6728.079000000002,91.537,351.547,348.341,0.0
